{
  "norad_id": 63424,
  "name": "STARLINK-33655",
  "history": [
    {
      "epoch": "2026-03-28T18:30:31.197024",
      "apogee_km": 483.26215353338193,
      "perigee_km": 482.6512417505428,
      "latitude_deg": -29.425890676051537,
      "longitude_deg": -123.56533663999289,
      "semi_major_axis_km": 6861.093697641962,
      "eccentricity": 4.452e-05,
      "inclination_deg": 43.0009,
      "raan_deg": 359.6432,
      "arg_perigee_deg": 225.1585,
      "mean_anomaly_deg": 134.9231,
      "mean_motion_rev_day": 15.27610858
    },
    {
      "epoch": "2026-03-29T02:21:17.511840",
      "apogee_km": 483.80405142436666,
      "perigee_km": 482.0380150866058,
      "latitude_deg": 12.655788145836032,
      "longitude_deg": -92.18054239987396,
      "semi_major_axis_km": 6861.0580332554855,
      "eccentricity": 0.0001287,
      "inclination_deg": 43.0019,
      "raan_deg": 357.7967,
      "arg_perigee_deg": 275.3146,
      "mean_anomaly_deg": 84.7559,
      "mean_motion_rev_day": 15.27622769
    }
  ]
}